{
    "type": "FeatureCollection",
    "features": [
        {
            "type": "Feature",
            "geometry": {
                "type": "MultiPolygon",
                "coordinates": [
                    [
                        [
                            [
                                -73.72,
                                40.868667
                            ],
                            [
                                -73.72,
                                40.585907
                            ],
                            [
                                -73.690293,
                                40.584748
                            ],
                            [
                                -73.681236,
                                40.584395
                            ],
                            [
                                -73.658157,
                                40.583496
                            ],
                            [
                                -73.646639,
                                40.583047
                            ],
                            [
                                -73.640902,
                                40.582823
                            ],
                            [
                                -73.637405,
                                40.583391
                            ],
                            [
                                -73.610873,
                                40.587703
                            ],
                            [
                                -73.570083,
                                40.584012
                            ],
                            [
                                -73.559093,
                                40.582027
                            ],
                            [
                                -73.507325,
                                40.593411
                            ],
                            [
                                -73.484901,
                                40.597825
                            ],
                            [
                                -73.424027,
                                40.609806
                            ],
                            [
                                -73.417311,
                                40.611128
                            ],
                            [
                                -73.351465,
                                40.6305
                            ],
                            [
                                -73.326262,
                                40.6331
                            ],
                            [
                                -73.306396,
                                40.620756
                            ],
                            [
                                -73.264493,
                                40.621437
                            ],
                            [
                                -73.262106,
                                40.621476
                            ],
                            [
                                -73.23914,
                                40.6251
                            ],
                            [
                                -73.20844,
                                40.630884
                            ],
                            [
                                -73.145266,
                                40.645491
                            ],
                            [
                                -73.054963,
                                40.666371
                            ],
                            [
                                -73.012545,
                                40.679651
                            ],
                            [
                                -72.923214,
                                40.713282
                            ],
                            [
                                -72.863164,
                                40.732962
                            ],
                            [
                                -72.807827,
                                40.749634
                            ],
                            [
                                -72.768152,
                                40.761587
                            ],
                            [
                                -72.757176,
                                40.764371
                            ],
                            [
                                -72.753112,
                                40.763571
                            ],
                            [
                                -72.745208,
                                40.767091
                            ],
                            [
                                -72.728173,
                                40.771669
                            ],
                            [
                                -72.680561,
                                40.784464
                            ],
                            [
                                -72.634269,
                                40.796904
                            ],
                            [
                                -72.613695,
                                40.802433
                            ],
                            [
                                -72.573441,
                                40.813251
                            ],
                            [
                                -72.566255,
                                40.8153
                            ],
                            [
                                -72.476243,
                                40.840959
                            ],
                            [
                                -72.471741,
                                40.842243
                            ],
                            [
                                -72.469996,
                                40.84274
                            ],
                            [
                                -72.421398,
                                40.858418
                            ],
                            [
                                -72.39585,
                                40.86666
                            ],
                            [
                                -72.351892,
                                40.883129
                            ],
                            [
                                -72.290119,
                                40.906271
                            ],
                            [
                                -72.245007,
                                40.923172
                            ],
                            [
                                -72.228378,
                                40.929402
                            ],
                            [
                                -72.154786,
                                40.956973
                            ],
                            [
                                -72.114448,
                                40.972085
                            ],
                            [
                                -72.029357,
                                40.999909
                            ],
                            [
                                -72.02654,
                                41.00094
                            ],
                            [
                                -71.935689,
                                41.034182
                            ],
                            [
                                -71.903494,
                                41.040891
                            ],
                            [
                                -71.87391,
                                41.052278
                            ],
                            [
                                -71.867925,
                                41.0587
                            ],
                            [
                                -71.856365,
                                41.071104
                            ],
                            [
                                -71.857316,
                                41.073151
                            ],
                            [
                                -71.86402,
                                41.075795
                            ],
                            [
                                -71.869558,
                                41.075046
                            ],
                            [
                                -71.889543,
                                41.075701
                            ],
                            [
                                -71.895496,
                                41.077381
                            ],
                            [
                                -71.904173,
                                41.084106
                            ],
                            [
                                -71.917075,
                                41.080523
                            ],
                            [
                                -71.93825,
                                41.077413
                            ],
                            [
                                -71.959595,
                                41.071237
                            ],
                            [
                                -71.961563,
                                41.064021
                            ],
                            [
                                -71.95662,
                                41.050194
                            ],
                            [
                                -71.95656,
                                41.050025
                            ],
                            [
                                -71.958981,
                                41.045743
                            ],
                            [
                                -71.969754,
                                41.040515
                            ],
                            [
                                -71.978188,
                                41.043098
                            ],
                            [
                                -71.981862,
                                41.047724
                            ],
                            [
                                -71.990798,
                                41.047695
                            ],
                            [
                                -72.020025,
                                41.022247
                            ],
                            [
                                -72.037812,
                                41.019979
                            ],
                            [
                                -72.049086,
                                41.022625
                            ],
                            [
                                -72.05585,
                                41.021995
                            ],
                            [
                                -72.056685,
                                41.017963
                            ],
                            [
                                -72.056697,
                                41.01796
                            ],
                            [
                                -72.061111,
                                41.017018
                            ],
                            [
                                -72.060944,
                                41.011536
                            ],
                            [
                                -72.07823,
                                41.007881
                            ],
                            [
                                -72.0799,
                                41.005675
                            ],
                            [
                                -72.079951,
                                41.003429
                            ],
                            [
                                -72.081988,
                                40.998806
                            ],
                            [
                                -72.091758,
                                40.994268
                            ],
                            [
                                -72.101946,
                                40.993449
                            ],
                            [
                                -72.110715,
                                40.99515
                            ],
                            [
                                -72.116368,
                                40.999796
                            ],
                            [
                                -72.122727,
                                41.007083
                            ],
                            [
                                -72.137409,
                                41.023908
                            ],
                            [
                                -72.135137,
                                41.031284
                            ],
                            [
                                -72.137297,
                                41.039684
                            ],
                            [
                                -72.153857,
                                41.051859
                            ],
                            [
                                -72.16037,
                                41.053827
                            ],
                            [
                                -72.162898,
                                41.053187
                            ],
                            [
                                -72.174882,
                                41.046147
                            ],
                            [
                                -72.17949,
                                41.038435
                            ],
                            [
                                -72.182891,
                                41.035898
                            ],
                            [
                                -72.183266,
                                41.035619
                            ],
                            [
                                -72.187602,
                                41.033813
                            ],
                            [
                                -72.190563,
                                41.032579
                            ],
                            [
                                -72.201859,
                                41.032275
                            ],
                            [
                                -72.217476,
                                41.040611
                            ],
                            [
                                -72.229364,
                                41.044355
                            ],
                            [
                                -72.241252,
                                41.04477
                            ],
                            [
                                -72.260487,
                                41.042069
                            ],
                            [
                                -72.260515,
                                41.042065
                            ],
                            [
                                -72.265278,
                                41.045496
                            ],
                            [
                                -72.273657,
                                41.051533
                            ],
                            [
                                -72.283093,
                                41.067874
                            ],
                            [
                                -72.276709,
                                41.076722
                            ],
                            [
                                -72.280373,
                                41.080402
                            ],
                            [
                                -72.297718,
                                41.081042
                            ],
                            [
                                -72.317238,
                                41.088659
                            ],
                            [
                                -72.321462,
                                41.100641
                            ],
                            [
                                -72.335177,
                                41.106917
                            ],
                            [
                                -72.337375,
                                41.109062
                            ],
                            [
                                -72.339463,
                                41.111101
                            ],
                            [
                                -72.335039,
                                41.120985
                            ],
                            [
                                -72.321157,
                                41.131901
                            ],
                            [
                                -72.309105,
                                41.134659
                            ],
                            [
                                -72.299999,
                                41.132741
                            ],
                            [
                                -72.281676,
                                41.122604
                            ],
                            [
                                -72.261608,
                                41.129645
                            ],
                            [
                                -72.254806,
                                41.134852
                            ],
                            [
                                -72.250792,
                                41.143838
                            ],
                            [
                                -72.242875,
                                41.153326
                            ],
                            [
                                -72.237731,
                                41.156434
                            ],
                            [
                                -72.238211,
                                41.15949
                            ],
                            [
                                -72.245348,
                                41.161217
                            ],
                            [
                                -72.2681,
                                41.154146
                            ],
                            [
                                -72.272997,
                                41.15501
                            ],
                            [
                                -72.278789,
                                41.158722
                            ],
                            [
                                -72.291109,
                                41.155874
                            ],
                            [
                                -72.304427,
                                41.149212
                            ],
                            [
                                -72.313348,
                                41.148876
                            ],
                            [
                                -72.325123,
                                41.144999
                            ],
                            [
                                -72.338853,
                                41.142012
                            ],
                            [
                                -72.35009,
                                41.140533
                            ],
                            [
                                -72.35396,
                                41.139252
                            ],
                            [
                                -72.357757,
                                41.130709
                            ],
                            [
                                -72.360852,
                                41.127733
                            ],
                            [
                                -72.368928,
                                41.119967
                            ],
                            [
                                -72.375281,
                                41.118655
                            ],
                            [
                                -72.382238,
                                41.114237
                            ],
                            [
                                -72.385566,
                                41.107253
                            ],
                            [
                                -72.394835,
                                41.097044
                            ],
                            [
                                -72.40272,
                                41.093943
                            ],
                            [
                                -72.417945,
                                41.087955
                            ],
                            [
                                -72.445242,
                                41.086116
                            ],
                            [
                                -72.460778,
                                41.067012
                            ],
                            [
                                -72.474735,
                                41.054514
                            ],
                            [
                                -72.477306,
                                41.052212
                            ],
                            [
                                -72.520836,
                                41.037886
                            ],
                            [
                                -72.521548,
                                41.037652
                            ],
                            [
                                -72.549408,
                                41.019567
                            ],
                            [
                                -72.559119,
                                41.013461
                            ],
                            [
                                -72.565406,
                                41.009508
                            ],
                            [
                                -72.585327,
                                40.997587
                            ],
                            [
                                -72.591742,
                                40.995591
                            ],
                            [
                                -72.635562,
                                40.981957
                            ],
                            [
                                -72.659014,
                                40.980057
                            ],
                            [
                                -72.663707,
                                40.979677
                            ],
                            [
                                -72.685761,
                                40.980288
                            ],
                            [
                                -72.708069,
                                40.977851
                            ],
                            [
                                -72.708454,
                                40.977755
                            ],
                            [
                                -72.745656,
                                40.968445
                            ],
                            [
                                -72.760491,
                                40.966812
                            ],
                            [
                                -72.774104,
                                40.965314
                            ],
                            [
                                -72.779381,
                                40.965769
                            ],
                            [
                                -72.826057,
                                40.969794
                            ],
                            [
                                -72.863799,
                                40.965648
                            ],
                            [
                                -72.88825,
                                40.962962
                            ],
                            [
                                -72.913834,
                                40.962466
                            ],
                            [
                                -72.924898,
                                40.963451
                            ],
                            [
                                -72.954859,
                                40.966119
                            ],
                            [
                                -72.955163,
                                40.966146
                            ],
                            [
                                -72.98405,
                                40.966395
                            ],
                            [
                                -72.995931,
                                40.966498
                            ],
                            [
                                -73.040445,
                                40.964498
                            ],
                            [
                                -73.043158,
                                40.962571
                            ],
                            [
                                -73.043701,
                                40.962185
                            ],
                            [
                                -73.081582,
                                40.973058
                            ],
                            [
                                -73.093414,
                                40.970343
                            ],
                            [
                                -73.100704,
                                40.968671
                            ],
                            [
                                -73.116557,
                                40.975238
                            ],
                            [
                                -73.119931,
                                40.975458
                            ],
                            [
                                -73.132726,
                                40.966762
                            ],
                            [
                                -73.150419,
                                40.965622
                            ],
                            [
                                -73.153509,
                                40.961494
                            ],
                            [
                                -73.143289,
                                40.951442
                            ],
                            [
                                -73.144473,
                                40.944882
                            ],
                            [
                                -73.146242,
                                40.935074
                            ],
                            [
                                -73.148489,
                                40.930031
                            ],
                            [
                                -73.148994,
                                40.928898
                            ],
                            [
                                -73.229285,
                                40.905121
                            ],
                            [
                                -73.231056,
                                40.905643
                            ],
                            [
                                -73.256961,
                                40.913274
                            ],
                            [
                                -73.295059,
                                40.924497
                            ],
                            [
                                -73.33136,
                                40.929597
                            ],
                            [
                                -73.344161,
                                40.927297
                            ],
                            [
                                -73.345561,
                                40.925297
                            ],
                            [
                                -73.348608,
                                40.925889
                            ],
                            [
                                -73.352761,
                                40.926697
                            ],
                            [
                                -73.365961,
                                40.931697
                            ],
                            [
                                -73.372298,
                                40.935365
                            ],
                            [
                                -73.392906,
                                40.954675
                            ],
                            [
                                -73.401094,
                                40.954693
                            ],
                            [
                                -73.402436,
                                40.950855
                            ],
                            [
                                -73.403462,
                                40.942197
                            ],
                            [
                                -73.402963,
                                40.925097
                            ],
                            [
                                -73.406074,
                                40.920235
                            ],
                            [
                                -73.407102,
                                40.915966
                            ],
                            [
                                -73.406313,
                                40.913118
                            ],
                            [
                                -73.405541,
                                40.91033
                            ],
                            [
                                -73.404088,
                                40.905083
                            ],
                            [
                                -73.405631,
                                40.904913
                            ],
                            [
                                -73.414805,
                                40.903902
                            ],
                            [
                                -73.426191,
                                40.90618
                            ],
                            [
                                -73.433225,
                                40.906967
                            ],
                            [
                                -73.435234,
                                40.907192
                            ],
                            [
                                -73.428836,
                                40.921506
                            ],
                            [
                                -73.429414,
                                40.924996
                            ],
                            [
                                -73.429875,
                                40.927775
                            ],
                            [
                                -73.437131,
                                40.934269
                            ],
                            [
                                -73.46437,
                                40.936968
                            ],
                            [
                                -73.478365,
                                40.942297
                            ],
                            [
                                -73.485365,
                                40.946397
                            ],
                            [
                                -73.491765,
                                40.942097
                            ],
                            [
                                -73.496642,
                                40.923476
                            ],
                            [
                                -73.489623,
                                40.919633
                            ],
                            [
                                -73.487055,
                                40.916194
                            ],
                            [
                                -73.481065,
                                40.90195
                            ],
                            [
                                -73.473516,
                                40.895464
                            ],
                            [
                                -73.470599,
                                40.876669
                            ],
                            [
                                -73.473864,
                                40.874896
                            ],
                            [
                                -73.478885,
                                40.872169
                            ],
                            [
                                -73.488689,
                                40.876846
                            ],
                            [
                                -73.48939,
                                40.884259
                            ],
                            [
                                -73.494408,
                                40.895023
                            ],
                            [
                                -73.507364,
                                40.893788
                            ],
                            [
                                -73.50772,
                                40.897958
                            ],
                            [
                                -73.508531,
                                40.907462
                            ],
                            [
                                -73.514999,
                                40.912821
                            ],
                            [
                                -73.519267,
                                40.914298
                            ],
                            [
                                -73.548068,
                                40.908698
                            ],
                            [
                                -73.557898,
                                40.912554
                            ],
                            [
                                -73.566169,
                                40.915798
                            ],
                            [
                                -73.569969,
                                40.915398
                            ],
                            [
                                -73.590838,
                                40.90869
                            ],
                            [
                                -73.59517,
                                40.907298
                            ],
                            [
                                -73.60187,
                                40.902798
                            ],
                            [
                                -73.617571,
                                40.897898
                            ],
                            [
                                -73.621018,
                                40.898448
                            ],
                            [
                                -73.626972,
                                40.899397
                            ],
                            [
                                -73.633771,
                                40.898198
                            ],
                            [
                                -73.641072,
                                40.892599
                            ],
                            [
                                -73.654372,
                                40.878199
                            ],
                            [
                                -73.65587,
                                40.86392
                            ],
                            [
                                -73.655872,
                                40.863899
                            ],
                            [
                                -73.647914,
                                40.854303
                            ],
                            [
                                -73.648567,
                                40.853434
                            ],
                            [
                                -73.653025,
                                40.847497
                            ],
                            [
                                -73.657115,
                                40.841156
                            ],
                            [
                                -73.659725,
                                40.841156
                            ],
                            [
                                -73.665907,
                                40.841156
                            ],
                            [
                                -73.675573,
                                40.856999
                            ],
                            [
                                -73.72,
                                40.868667
                            ]
                        ]
                    ],
                    [
                        [
                            [
                                -72.128352,
                                41.108131
                            ],
                            [
                                -72.132225,
                                41.104387
                            ],
                            [
                                -72.140737,
                                41.100835
                            ],
                            [
                                -72.142929,
                                41.097811
                            ],
                            [
                                -72.141921,
                                41.094371
                            ],
                            [
                                -72.139233,
                                41.092451
                            ],
                            [
                                -72.12056,
                                41.093171
                            ],
                            [
                                -72.108807,
                                41.088254
                            ],
                            [
                                -72.105559,
                                41.085855
                            ],
                            [
                                -72.099543,
                                41.075215
                            ],
                            [
                                -72.099607,
                                41.054255
                            ],
                            [
                                -72.095711,
                                41.05402
                            ],
                            [
                                -72.083736,
                                41.060061
                            ],
                            [
                                -72.077928,
                                41.095708
                            ],
                            [
                                -72.084207,
                                41.101524
                            ],
                            [
                                -72.126704,
                                41.115139
                            ],
                            [
                                -72.128352,
                                41.108131
                            ]
                        ]
                    ],
                    [
                        [
                            [
                                -72.158265,
                                41.197126
                            ],
                            [
                                -72.189163,
                                41.193549
                            ],
                            [
                                -72.20283,
                                41.187672
                            ],
                            [
                                -72.21412,
                                41.182817
                            ],
                            [
                                -72.216497,
                                41.170294
                            ],
                            [
                                -72.199859,
                                41.160453
                            ],
                            [
                                -72.187975,
                                41.1694
                            ],
                            [
                                -72.182033,
                                41.178345
                            ],
                            [
                                -72.161034,
                                41.188671
                            ],
                            [
                                -72.158265,
                                41.197126
                            ]
                        ]
                    ],
                    [
                        [
                            [
                                -72.018926,
                                41.274114
                            ],
                            [
                                -72.023422,
                                41.270994
                            ],
                            [
                                -72.029438,
                                41.26309
                            ],
                            [
                                -72.037994,
                                41.253509
                            ],
                            [
                                -72.034903,
                                41.248862
                            ],
                            [
                                -72.002461,
                                41.252867
                            ],
                            [
                                -71.994717,
                                41.256451
                            ],
                            [
                                -71.978926,
                                41.265002
                            ],
                            [
                                -71.963167,
                                41.271973
                            ],
                            [
                                -71.944327,
                                41.276285
                            ],
                            [
                                -71.932748,
                                41.279553
                            ],
                            [
                                -71.925194,
                                41.287327
                            ],
                            [
                                -71.933073,
                                41.292387
                            ],
                            [
                                -71.950641,
                                41.288476
                            ],
                            [
                                -71.977838,
                                41.283669
                            ],
                            [
                                -71.991117,
                                41.281331
                            ],
                            [
                                -72.000906,
                                41.270506
                            ],
                            [
                                -72.018926,
                                41.274114
                            ]
                        ]
                    ]
                ]
            },
            "properties": {
                "id": "li",
                "name": "Long Island",
                "short_name": "LI",
                "kind": "adjacent_island",
                "region_type": "Adjacent Region - Island",
                "boundary_basis": "Western edge follows the HUD region boundary (about 73.72°W), where the terrain drops south; U.S. Census coastline elsewhere",
                "notes": "Long Island east of New York City: most of Nassau County and all of Suffolk County. Brooklyn and Queens are in the NYC region.",
                "draft": false,
                "source": "U.S. Census Bureau 2024 cartographic boundary files"
            }
        }
    ]
}
